STARLINK-2338_new
1 17793C 21018G   21326.18732514 -.00020257  00000-0 -13573-2 0  3260
2 17793  53.0554  72.8921 0001176  89.9387 146.3137 15.06416477    19
STARLINK-2338_old
1 27793C 21018G   21325.13698214  .00004127  00000-0  27652-3 0  3251
2 27793  53.0557  77.6067 0001299  89.5336 207.5094 15.06396038    14
